NIMIQ 6                 
1 38342U 12026A   26095.13378222 -.00000173  00000+0  00000+0 0  9991
2 38342   0.0464  68.6184 0002604 306.3534 135.5211  1.00271745 49687
ZHONGXING-2A            
1 38352U 12028A   26095.12753198 -.00000291  00000+0  00000+0 0  9993
2 38352   1.2658  84.8337 0001035 341.4265 271.3623  1.00271282 50565
INTELSAT 19 (IS-19)     
1 38356U 12030A   26095.13614575 -.00000056  00000+0  00000+0 0  9995
2 38356   0.0253 102.5391 0003082 274.9099  31.0005  1.00270161 49719
ECHOSTAR 17             
1 38551U 12035A   26095.08197885 -.00000074  00000+0  00000+0 0  9991
2 38551   0.0175 180.5082 0001894 197.6467  97.6409  1.00271160 50337
METEOSAT-10 (MSG-3)     
1 38552U 12035B   26095.24586322 -.00000004  00000+0  00000+0 0  9991
2 38552   4.4996  61.3216 0002412 296.9339 283.8759  1.00273516 50121
SES-5                   
1 38652U 12036A   26095.22822667  .00000035  00000+0  00000+0 0  9999
2 38652   0.0599 303.0130 0002016  75.2098 262.4372  1.00271682 43728
INTELSAT 20 (IS-20)     
1 38740U 12043A   26095.18814596 -.00000023  00000+0  00000+0 0  9990
2 38740   0.0187 134.9766 0002449  34.6049 160.1349  1.00269642 50011
HYLAS 2                 
1 38741U 12043B   26095.20156745 -.00000255  00000+0  00000+0 0  9996
2 38741   2.2389  81.9409 0002795 319.3551 152.2349  1.00272512 50045
INTELSAT 21 (IS-21)     
1 38749U 12045A   26095.09177222 -.00000284  00000+0  00000+0 0  9998
2 38749   0.0182 208.7390 0001952 184.6489 135.0477  1.00272496 49797
ASTRA 2F                
1 38778U 12051A   26095.21711404  .00000151  00000+0  00000+0 0  9999
2 38778   0.0648 254.9002 0001389  32.5561  12.4249  1.00269855 40404
GSAT-10                 
1 38779U 12051B   26095.12316836 -.00000164  00000+0  00000+0 0  9995
2 38779   0.0824 265.6529 0006267 171.8567 243.2403  1.00273123 49360
INTELSAT 23 (IS-23)     
1 38867U 12057A   26094.95007807 -.00000284  00000+0  00000+0 0  9997
2 38867   0.0163 248.1399 0000634 160.5936  73.5248  1.00269209 49228
BEIDOU-2 G6             
1 38953U 12059A   26095.04852539 -.00000173  00000+0  00000+0 0  9993
2 38953   4.2370  74.2924 0010927 311.7479 268.8374  1.00271726 49170
LUCH-5B                 
1 38977U 12061A   26095.17124588 -.00000134  00000+0  00000+0 0  9999
2 38977  10.3284  50.5926 0002337 229.5635 318.6546  1.00273707 48875
YAMAL 300K              
1 38978U 12061B   26094.06985939  .00000070  00000+0  00000+0 0  9990
2 38978   0.0110 186.0808 0000393  45.6533 168.7500  1.00272982 48887
STAR ONE C3             
1 38991U 12062A   26095.16919711 -.00000248  00000+0  00000+0 0  9991
2 38991   0.0272 267.9859 0002572 129.3474 142.0370  1.00271672 49034
EUTELSAT 21B            
1 38992U 12062B   26095.22267174  .00000131  00000+0  00000+0 0  9998
2 38992   0.0715  10.9837 0002831   2.2350 282.0618  1.00273449 49099
